{"type": "FeatureCollection", "features": [ {"type": "Feature", "properties": {"norad_id": 43648, "name": "BEIDOU-3 M15 (C34)", "group": "gnss", "lat": 17.808512065359242, "lon": -40.636140415415824, "alt_km": 21514.43533362838, "timestamp": "2025-12-27T08:36:18.625368+00:00", "meta": {"OBJECT_NAME": "BEIDOU-3 M15 (C34)", "OBJECT_ID": "2018-078B", "EPOCH": "2025-12-26T06:02:24.001152", "MEAN_MOTION": 1.86232322, "ECCENTRICITY": 0.0004086, "INCLINATION": 54.2454, "RA_OF_ASC_NODE": 306.0502, "ARG_OF_PERICENTER": 19.6229, "MEAN_ANOMALY": 340.4025, "EPHEMERIS_TYPE": 0, "CLASSIFICATION_TYPE": "U", "NORAD_CAT_ID": 43648, "ELEMENT_SET_NO": 999, "REV_AT_EPOCH": 4895, "BSTAR": 0, "MEAN_MOTION_DOT": -5.6e-07, "MEAN_MOTION_DDOT": 0}, "tle": {"line1": "1 43648U 18078B   25360.25166668 -.00000056  00000+0  00000+0 0  9995", "line2": "2 43648  54.2454 306.0502 0004086  19.6229 340.4025  1.86232322 48957"}}, "geometry": {"type": "Point", "coordinates": [-40.636140415415824, 17.808512065359242]}}, {"type": "Feature", "properties": {"norad_id": 43683, "name": "BEIDOU-3 G1 (C59)", "group": "gnss", "lat": -2.6226303370617146, "lon": 5.047946810272706, "alt_km": 35792.80304496155, "timestamp": "2025-12-27T08:36:18.625386+00:00", "meta": {"OBJECT_NAME": "BEIDOU-3 G1 (C59)", "OBJECT_ID": "2018-085A", "EPOCH": "2025-12-26T05:08:26.429856", "MEAN_MOTION": 1.0026556, "ECCENTRICITY": 0.0001266, "INCLINATION": 2.6395, "RA_OF_ASC_NODE": 102.5209, "ARG_OF_PERICENTER": 50.4767, "MEAN_ANOMALY": 159.0004, "EPHEMERIS_TYPE": 0, "CLASSIFICATION_TYPE": "U", "NORAD_CAT_ID": 43683, "ELEMENT_SET_NO": 999, "REV_AT_EPOCH": 2632, "BSTAR": 0, "MEAN_MOTION_DOT": -2.58e-06, "MEAN_MOTION_DDOT": 0}, "tle": {"line1": "1 43683U 18085A   25360.21419479 -.00000258  00000+0  00000+0 0  9993", "line2": "2 43683   2.6395 102.5209 0001266  50.4767 159.0004  1.00265560 26321"}}, "geometry": {"type": "Point", "coordinates": [5.047946810272706, -2.6226303370617146]}}, {"type": "Feature", "properties": {"norad_id": 43687, "name": "COSMOS 2529 (757)", "group": "gnss", "lat": -48.81529910244156, "lon": 164.97903098550532, "alt_km": 19124.333772262875, "timestamp": "2025-12-27T08:36:18.625404+00:00", "meta": {"OBJECT_NAME": "COSMOS 2529 (757)", "OBJECT_ID": "2018-086A", "EPOCH": "2025-12-26T23:06:55.461888", "MEAN_MOTION": 2.13102033, "ECCENTRICITY": 0.0006849, "INCLINATION": 64.293, "RA_OF_ASC_NODE": 198.4076, "ARG_OF_PERICENTER": 253.3441, "MEAN_ANOMALY": 106.6358, "EPHEMERIS_TYPE": 0, "CLASSIFICATION_TYPE": "U", "NORAD_CAT_ID": 43687, "ELEMENT_SET_NO": 999, "REV_AT_EPOCH": 5561, "BSTAR": 0, "MEAN_MOTION_DOT": 1.18e-06, "MEAN_MOTION_DDOT": 0}, "tle": {"line1": "1 43687U 18086A   25360.96314192  .00000118  00000+0  00000+0 0  9990", "line2": "2 43687  64.2930 198.4076 0006849 253.3441 106.6358  2.13102033 55619"}}, "geometry": {"type": "Point", "coordinates": [164.97903098550532, -48.81529910244156]}}, {"type": "Feature", "properties": {"norad_id": 43706, "name": "BEIDOU-3 M17 (C36)", "group": "gnss", "lat": -53.76462417626684, "lon": 107.69792307163348, "alt_km": 21519.80564148174, "timestamp": "2025-12-27T08:36:18.625425+00:00", "meta": {"OBJECT_NAME": "BEIDOU-3 M17 (C36)", "OBJECT_ID": "2018-093A", "EPOCH": "2025-12-26T03:36:39.806208", "MEAN_MOTION": 1.86228273, "ECCENTRICITY": 0.00059945, "INCLINATION": 54.1735, "RA_OF_ASC_NODE": 188.1665, "ARG_OF_PERICENTER": 306.9478, "MEAN_ANOMALY": 238.7851, "EPHEMERIS_TYPE": 0, "CLASSIFICATION_TYPE": "U", "NORAD_CAT_ID": 43706, "ELEMENT_SET_NO": 999, "REV_AT_EPOCH": 4831, "BSTAR": 0, "MEAN_MOTION_DOT": 1.19e-06, "MEAN_MOTION_DDOT": 0}, "tle": {"line1": "1 43706U 18093A   25360.15046072  .00000119  00000+0  00000+0 0  9991", "line2": "2 43706  54.1735 188.1665 0005994 306.9478 238.7851  1.86228273 48315"}}, "geometry": {"type": "Point", "coordinates": [107.69792307163348, -53.76462417626684]}}, {"type": "Feature", "properties": {"norad_id": 43707, "name": "BEIDOU-3 M18 (C37)", "group": "gnss", "lat": 6.8528723514677194, "lon": -166.89810164167113, "alt_km": 21511.37934513009, "timestamp": "2025-12-27T08:36:18.625445+00:00", "meta": {"OBJECT_NAME": "BEIDOU-3 M18 (C37)", "OBJECT_ID": "2018-093B", "EPOCH": "2025-12-26T19:24:55.355328", "MEAN_MOTION": 1.86226544, "ECCENTRICITY": 0.0006098, "INCLINATION": 54.1738, "RA_OF_ASC_NODE": 188.1361, "ARG_OF_PERICENTER": 353.9736, "MEAN_ANOMALY": 6.054, "EPHEMERIS_TYPE": 0, "CLASSIFICATION_TYPE": "U", "NORAD_CAT_ID": 43707, "ELEMENT_SET_NO": 999, "REV_AT_EPOCH": 4832, "BSTAR": 0, "MEAN_MOTION_DOT": 1.25e-06, "MEAN_MOTION_DDOT": 0}, "tle": {"line1": "1 43707U 18093B   25360.80897402  .00000125  00000+0  00000+0 0  9992", "line2": "2 43707  54.1738 188.1361 0006098 353.9736   6.0540  1.86226544 48328"}}, "geometry": {"type": "Point", "coordinates": [-166.89810164167113, 6.8528723514677194]}}, {"type": "Feature", "properties": {"norad_id": 43873, "name": "GPS BIII-1  (PRN 04)", "group": "gnss", "lat": -54.03793740801613, "lon": -10.287654902564775, "alt_km": 20143.516048898236, "timestamp": "2025-12-27T08:36:18.625463+00:00", "meta": {"OBJECT_NAME": "GPS BIII-1  (PRN 04)", "OBJECT_ID": "2018-109A", "EPOCH": "2025-12-26T12:23:38.434848", "MEAN_MOTION": 2.00553927, "ECCENTRICITY": 0.0037609, "INCLINATION": 55.5742, "RA_OF_ASC_NODE": 99.0034, "ARG_OF_PERICENTER": 195.6344, "MEAN_ANOMALY": 174.7569, "EPHEMERIS_TYPE": 0, "CLASSIFICATION_TYPE": "U", "NORAD_CAT_ID": 43873, "ELEMENT_SET_NO": 999, "REV_AT_EPOCH": 5161, "BSTAR": 0, "MEAN_MOTION_DOT": 1.3e-07, "MEAN_MOTION_DDOT": 0}, "tle": {"line1": "1 43873U 18109A   25360.51641707  .00000013  00000+0  00000+0 0  9993", "line2": "2 43873  55.5742  99.0034 0037609 195.6344 174.7569  2.00553927 51612"}}, "geometry": {"type": "Point", "coordinates": [-10.287654902564775, -54.03793740801613]}}, {"type": "Feature", "properties": {"norad_id": 44231, "name": "BEIDOU-2 G8 (C01)", "group": "gnss", "lat": -1.538047152898413, "lon": 9.756567423578176, "alt_km": 35757.52827291124, "timestamp": "2025-12-27T08:36:18.625481+00:00", "meta": {"OBJECT_NAME": "BEIDOU-2 G8 (C01)", "OBJECT_ID": "2019-027A", "EPOCH": "2025-12-27T05:07:43.057056", "MEAN_MOTION": 1.00273552, "ECCENTRICITY": 0.0008351, "INCLINATION": 1.6963, "RA_OF_ASC_NODE": 74.7446, "ARG_OF_PERICENTER": 258.7361, "MEAN_ANOMALY": 343.9236, "EPHEMERIS_TYPE": 0, "CLASSIFICATION_TYPE": "U", "NORAD_CAT_ID": 44231, "ELEMENT_SET_NO": 999, "REV_AT_EPOCH": 2435, "BSTAR": 0, "MEAN_MOTION_DOT": -2.25e-06, "MEAN_MOTION_DDOT": 0}, "tle": {"line1": "1 44231U 19027A   25361.21369279 -.00000225  00000+0  00000+0 0  9997", "line2": "2 44231   1.6963  74.7446 0008351 258.7361 343.9236  1.00273552 24351"}}, "geometry": {"type": "Point", "coordinates": [9.756567423578176, -1.538047152898413]}}, {"type": "Feature", "properties": {"norad_id": 44299, "name": "COSMOS 2534 (758)", "group": "gnss", "lat": 61.754601350128524, "lon": -98.20724849277778, "alt_km": 19142.895236424352, "timestamp": "2025-12-27T08:36:18.625499+00:00", "meta": {"OBJECT_NAME": "COSMOS 2534 (758)", "OBJECT_ID": "2019-030A", "EPOCH": "2025-12-27T00:38:16.600128", "MEAN_MOTION": 2.13102128, "ECCENTRICITY": 0.0008617, "INCLINATION": 64.3665, "RA_OF_ASC_NODE": 198.4112, "ARG_OF_PERICENTER": 283.8856, "MEAN_ANOMALY": 259.1892, "EPHEMERIS_TYPE": 0, "CLASSIFICATION_TYPE": "U", "NORAD_CAT_ID": 44299, "ELEMENT_SET_NO": 999, "REV_AT_EPOCH": 5125, "BSTAR": 0, "MEAN_MOTION_DOT": 1.18e-06, "MEAN_MOTION_DDOT": 0}, "tle": {"line1": "1 44299U 19030A   25361.02658102  .00000118  00000+0  00000+0 0  9990", "line2": "2 44299  64.3665 198.4112 0008617 283.8856 259.1892  2.13102128 51257"}}, "geometry": {"type": "Point", "coordinates": [-98.20724849277778, 61.754601350128524]}}, {"type": "Feature", "properties": {"norad_id": 44337, "name": "BEIDOU-3 IGSO-2 (C39)", "group": "gnss", "lat": -3.27753424368628, "lon": -17.360332178246818, "alt_km": 35637.35198112488, "timestamp": "2025-12-27T08:36:18.625519+00:00", "meta": {"OBJECT_NAME": "BEIDOU-3 IGSO-2 (C39)", "OBJECT_ID": "2019-035A", "EPOCH": "2025-12-26T08:27:52.331328", "MEAN_MOTION": 1.00266958, "ECCENTRICITY": 0.0037903, "INCLINATION": 55.2292, "RA_OF_ASC_NODE": 160.3818, "ARG_OF_PERICENTER": 202.693, "MEAN_ANOMALY": 338.2763, "EPHEMERIS_TYPE": 0, "CLASSIFICATION_TYPE": "U", "NORAD_CAT_ID": 44337, "ELEMENT_SET_NO": 999, "REV_AT_EPOCH": 2393, "BSTAR": 0, "MEAN_MOTION_DOT": -6e-07, "MEAN_MOTION_DDOT": 0}, "tle": {"line1": "1 44337U 19035A   25360.35268902 -.00000060  00000+0  00000+0 0  9995", "line2": "2 44337  55.2292 160.3818 0037903 202.6930 338.2763  1.00266958 23935"}}, "geometry": {"type": "Point", "coordinates": [-17.360332178246818, -3.27753424368628]}}, {"type": "Feature", "properties": {"norad_id": 44506, "name": "GPS BIII-2  (PRN 18)", "group": "gnss", "lat": 19.953660274926726, "lon": 143.62644012795707, "alt_km": 20067.36166102185, "timestamp": "2025-12-27T08:36:18.625538+00:00", "meta": {"OBJECT_NAME": "GPS BIII-2  (PRN 18)", "OBJECT_ID": "2019-056A", "EPOCH": "2025-12-26T20:32:24.377280", "MEAN_MOTION": 2.0056645, "ECCENTRICITY": 0.00577777, "INCLINATION": 55.7161, "RA_OF_ASC_NODE": 337.993, "ARG_OF_PERICENTER": 198.6833, "MEAN_ANOMALY": 314.3411, "EPHEMERIS_TYPE": 0, "CLASSIFICATION_TYPE": "U", "NORAD_CAT_ID": 44506, "ELEMENT_SET_NO": 999, "REV_AT_EPOCH": 4661, "BSTAR": 0, "MEAN_MOTION_DOT": -5.9e-07, "MEAN_MOTION_DDOT": 0}, "tle": {"line1": "1 44506U 19056A   25360.85583770 -.00000059  00000+0  00000+0 0  9992", "line2": "2 44506  55.7161 337.9930 0057777 198.6833 314.3411  2.00566450 46613"}}, "geometry": {"type": "Point", "coordinates": [143.62644012795707, 19.953660274926726]}}]}